IDEFIX & ARIANE 42P R/B 
1 27422U 02021B   22240.12520258  .00000071  00000+0  44295-4 0  9992
2 27422  98.4526 183.9842 0012914  30.3734 329.8194 14.29440151 57790
AQUA                    
1 27424U 02022A   22240.46251529  .00000293  00000+0  74727-4 0  9993
2 27424  98.2499 181.6835 0001749  60.8271  76.9013 14.57364007 80718
CZ-4B R/B               
1 27432U 02024C   22240.33481594 -.00000002  00000+0  22318-4 0  9995
2 27432  99.0591 266.4499 0051371  74.2135 298.9194 14.14149411 47061
MIDORI II (ADEOS-II)    
1 27597U 02056A   22239.47224135  .00000081  00000+0  50645-4 0  9991
2 27597  98.6095 182.2914 0001611 118.2412 241.8931 14.27637259 26107
H-2A R/B                
1 27601U 02056E   22240.46058299  .00000154  00000+0  70236-4 0  9993
2 27601  98.1789 243.0155 0072982  47.2560  71.8607 14.32099029 29461
CZ-4B R/B               
1 28059U 03049C   22239.58894653  .00000057  00000+0  25582-4 0  9993
2 28059  98.5216 177.5213 0049276 208.8525 150.9944 14.52819001999146
CZ-2C R/B               
1 28222U 04012C   22240.51184983  .00001913  00000+0  10979-3 0  9994
2 28222  97.7778 222.7294 0045007 163.4889 311.3273 15.12992983  7169
SL-16 R/B               
1 28353U 04021B   22240.56819781 -.00000295  00000+0 -12968-3 0  9999
2 28353  70.9990  57.0281 0006179 219.7704 140.2966 14.14277259940556
CZ-4B R/B               
1 28415U 04035C   22240.37133912  .00001347  00000+0  88297-4 0  9993
2 28415  97.5115 279.2609 0051104 132.3749 228.1823 15.08345229984438
CZ-2C R/B               
1 28480U 04046B   22240.18996237  .00000046  00000+0  32392-4 0  9993
2 28480  98.0703 222.3029 0141990  10.2661 350.1367 14.25849719924674
ARIANE 5 R/B            
1 28499U 04049H   22240.06850481  .00000373  00000+0  52886-4 0  9996
2 28499  98.1044 357.4898 0090911 202.3776 331.0428 14.80485361954718
CZ-2D R/B               
1 28738U 05024B   22239.98462354  .00001657  00000+0  94200-4 0  9995
2 28738  97.3530 245.6574 0009575 293.5930  66.4297 15.14194959942598
SUZAKU (ASTRO-EII)      
1 28773U 05025A   22240.14826548  .00003825  00000+0  16057-3 0  9996
2 28773  31.3791 192.9671 0003830   7.1709 352.8993 15.21712518945938
ALOS (DAICHI)           
1 28931U 06002A   22240.45291285  .00000296  00000+0  66210-4 0  9992
2 28931  97.9413 202.6425 0002413  72.4708 287.6728 14.63265707884952
H-2A R/B                
1 28932U 06002B   22240.14154166  .00001389  00000+0  12837-3 0  9994
2 28932  98.2861 286.5329 0085483 216.0097 143.5344 14.93745137900847
AKARI (ASTRO-F)         
1 28939U 06005A   22240.15166617  .00018532  00000+0  31374-3 0  9994
2 28939  98.1913 322.9624 0064819  20.7756 339.6105 15.49219382904191
CZ-4B R/B               
1 29093U 06015B   22239.66976284  .00019901  00000+0  22006-3 0  9993
2 29093  97.5903 104.2630 0033878 280.0811  79.6624 15.62337059910660
RESURS-DK 1             
1 29228U 06021A   22239.54764537  .00000451  00000+0  40377-4 0  9995
2 29228  69.9358 307.8146 0007075 295.5977  64.4452 15.03365896893064
GENESIS 1               
1 29252U 06029A   22239.60743707  .00002020  00000+0  96187-4 0  9997
2 29252  64.5199 197.3484 0056565 251.3422 108.1557 15.21142778889794
CZ-4B R/B               
1 29507U 06046C   22239.69395400  .00001203  00000+0  94730-4 0  9995
2 29507  97.7258 269.4866 0044468 352.4789   7.5763 15.01991931865565
CZ-2C R/B               
1 31114U 07010B   22240.03245634 -.00000012  00000+0  12528-4 0  9990
2 31114  98.2472  48.2170 0060869  89.2475 271.5676 14.19443192796734
COSMO-SKYMED 1          
1 31598U 07023A   22240.50309019  .00000111  00000+0  20518-4 0  9997
2 31598  97.8893  63.1313 0001435  92.6991 267.4355 14.82149968823634
GENESIS 2               
1 31789U 07028A   22239.73174452  .00002263  00000+0  11047-3 0  9994
2 31789  64.4933 240.3008 0053889 304.2505  55.3520 15.20011046836735
COSMOS 2428             
1 31792U 07029A   22240.36524050  .00000039  00000+0  46797-4 0  9993
2 31792  70.9546  28.9903 0010295 285.4991  74.4993 14.12596628782086
SL-16 R/B               
1 31793U 07029B   22239.82433631  .00000219  00000+0  13911-3 0  9998
2 31793  70.9788   2.9258 0001906 261.9171 213.0323 14.14483620782951
KORONAS-FOTON           
1 33504U 09003A   22239.68420157  .00001528  00000+0  74346-4 0  9991
2 33504  82.4430 144.8567 0019291  28.5832 331.6454 15.17497470748766
H-2A R/B                
1 38341U 12025E   22240.17815669  .00000484  00000+0  62990-4 0  9997
2 38341  98.4968 100.1908 0054674 174.7479 185.4319 14.84827344556371
CUSAT 2 & FALCON 9 R/B  
1 39271U 13055G   22240.15205645  .00009137  00000+0  19608-3 0  9990
2 39271  80.9566 116.0868 0516971 256.1316  98.1882 14.65504569467267
SHIJIAN-16 (SJ-16)      
1 39358U 13057A   22240.33157646  .00000347  00000+0  42491-4 0  9996
2 39358  74.9740  93.4281 0018123 344.0156  16.0452 14.86260213479670
CZ-2C R/B               
1 39364U 13059B   22240.20600648  .00005773  00000+0  18179-3 0  9999
2 39364  97.1538 291.1235 0043433  76.1171 284.4898 15.32359691491239
SL-4 R/B                
1 39679U 14021B   22240.10375300  .00003147  00000+0  16004-3 0  9999
2 39679  51.6161 342.2072 0163715 207.4155 151.8107 15.09101052460257
ALOS-2                  
1 39766U 14029A   22240.29859748  .00000185  00000+0  31605-4 0  9991
2 39766  97.9227 336.3985 0001502  93.4978 266.6446 14.79473224446252
CZ-2C R/B               
1 40306U 14071B   22240.49579507  .00036772  00000+0  33547-3 0  9991
2 40306  97.4214 217.9492 0012492 102.6628 257.6030 15.67700712438193
SL-27 R/B               
1 40354U 14084B   22239.87627202  .00004697  00000+0  99691-4 0  9998
2 40354  74.7383 166.5407 0034680 306.5482  53.2541 15.44640323431626
YAOGAN-29               
1 41038U 15069A   22240.30777075  .00000146  00000+0  25877-4 0  9996
2 41038  98.0586 240.8419 0000833 131.3002 228.8287 14.80908386364924
ASTRO-H (HITOMI)        
1 41337U 16012A   22239.49327265  .00000704  00000+0  49086-4 0  9995
2 41337  31.0059 328.7314 0012117  69.9756 290.2183 14.99540574357794
HXMT (HUIYAN)           
1 42758U 17034A   22240.42519291  .00001068  00000+0  76409-4 0  9998
2 42758  43.0188 312.4131 0009556   3.8993 105.1818 15.10762980287060
CZ-2C R/B               
1 43521U 18054D   22239.78225761  .00002251  00000+0  11560-3 0  9994
2 43521  35.1526 275.2552 0078198 354.1370   5.8425 15.13664219230493
AEOLUS                  
1 43600U 18066A   22240.51524982  .00066029  00000+0  26135-3 0  9992
2 43600  96.7023 245.1610 0004809  87.8699 272.3125 15.86576339232551
SAOCOM 1A               
1 43641U 18076A   22240.51152625  .00000107  00000+0  20027-4 0  9999
2 43641  97.8896  66.1776 0001464  79.5931 280.5443 14.82160093210406
SAOCOM 1B               
1 46265U 20059A   22240.20510463 -.00000045  00000+0  95923-6 0  9993
2 46265  97.8886  64.9384 0001493  79.8620 280.2706 14.82162238107756
CSS (TIANHE)            
1 48274U 21035A   22240.61164688  .00012937  00000+0  14792-3 0  9993
2 48274  41.4715 137.7842 0005209 210.2476 219.7007 15.61929948 76091
2022-019U               
1 51842U 22019U   22240.48241532  .00002353  00000+0  93403-4 0  9998
2 51842  97.5556 318.6121 0066310 296.4859 193.9781 15.24407212 27757
SZ-13 MODULE            
1 52260U 21092C   22240.12998024  .00023674  00000+0  18335-3 0  9998
2 52260  41.4801 132.3439 0012901 282.6495  77.2905 15.71174932 20663
CZ-2C R/B               
1 52794U 22058K   22239.38725642  .00002664  00000+0  15598-3 0  9997
2 52794  50.1724 205.6023 0103422  20.5713 339.9358 15.11095785 13013
